DIWATA-2B               
1 43678U 18084H   26068.98908358  .00005066  00000+0  41230-3 0  9990
2 43678  98.1039 261.0381 0011778 125.8755 234.3563 14.99967379401340
TELEOS-2                
1 56310U 23057C   26067.64596106  .00000863  00000+0  15043-4 0  9993
2 56310   9.9874 216.2411 0000803 295.2771  64.7359 14.96380118157711
